{"type": "FeatureCollection", "features": [ {"type": "Feature", "properties": {"norad_id": 40701, "name": "GAOFEN-8", "group": "resource", "lat": -20.72462158161337, "lon": -10.273242903279836, "alt_km": 454.7210977618033, "timestamp": "2025-12-20T03:42:47.049329+00:00", "meta": {"OBJECT_NAME": "GAOFEN-8", "OBJECT_ID": "2015-030A", "EPOCH": "2025-12-19T20:36:05.468832", "MEAN_MOTION": 15.3878205, "ECCENTRICITY": 0.0011898, "INCLINATION": 97.6901, "RA_OF_ASC_NODE": 172.3466, "ARG_OF_PERICENTER": 113.9768, "MEAN_ANOMALY": 246.2723, "EPHEMERIS_TYPE": 0, "CLASSIFICATION_TYPE": "U", "NORAD_CAT_ID": 40701, "ELEMENT_SET_NO": 999, "REV_AT_EPOCH": 58380, "BSTAR": 0.00044989, "MEAN_MOTION_DOT": 0.0001722, "MEAN_MOTION_DDOT": 0}, "tle": {"line1": "1 40701U 15030A   25353.85839663  .00017220  00000+0  44989-3 0  9995", "line2": "2 40701  97.6901 172.3466 0011898 113.9768 246.2723 15.38782050583806"}}, "geometry": {"type": "Point", "coordinates": [-10.273242903279836, -20.72462158161337]}}, {"type": "Feature", "properties": {"norad_id": 40718, "name": "CARBONITE 1 (CBNT-1)", "group": "resource", "lat": 78.62149107235608, "lon": 133.0399510191348, "alt_km": 610.6271421662123, "timestamp": "2025-12-20T03:42:47.049339+00:00", "meta": {"OBJECT_NAME": "CARBONITE 1 (CBNT-1)", "OBJECT_ID": "2015-032D", "EPOCH": "2025-12-19T19:14:53.960352", "MEAN_MOTION": 14.82776851, "ECCENTRICITY": 0.001495, "INCLINATION": 97.6394, "RA_OF_ASC_NODE": 174.5345, "ARG_OF_PERICENTER": 158.3068, "MEAN_ANOMALY": 201.8782, "EPHEMERIS_TYPE": 0, "CLASSIFICATION_TYPE": "U", "NORAD_CAT_ID": 40718, "ELEMENT_SET_NO": 999, "REV_AT_EPOCH": 56275, "BSTAR": 0.000299, "MEAN_MOTION_DOT": 2.371e-05, "MEAN_MOTION_DDOT": 0}, "tle": {"line1": "1 40718U 15032D   25353.80201343  .00002371  00000+0  29900-3 0  9995", "line2": "2 40718  97.6394 174.5345 0014950 158.3068 201.8782 14.82776851562751"}}, "geometry": {"type": "Point", "coordinates": [133.0399510191348, 78.62149107235608]}}, {"type": "Feature", "properties": {"norad_id": 40878, "name": "YAOGAN-27", "group": "resource", "lat": 16.99517390265143, "lon": -19.683593463080307, "alt_km": 1201.9648663246508, "timestamp": "2025-12-20T03:42:47.049350+00:00", "meta": {"OBJECT_NAME": "YAOGAN-27", "OBJECT_ID": "2015-040A", "EPOCH": "2025-12-19T20:19:39.015840", "MEAN_MOTION": 13.16060735, "ECCENTRICITY": 0.0007585, "INCLINATION": 100.1006, "RA_OF_ASC_NODE": 343.1455, "ARG_OF_PERICENTER": 269.0607, "MEAN_ANOMALY": 90.9637, "EPHEMERIS_TYPE": 0, "CLASSIFICATION_TYPE": "U", "NORAD_CAT_ID": 40878, "ELEMENT_SET_NO": 999, "REV_AT_EPOCH": 49407, "BSTAR": -0.0005338, "MEAN_MOTION_DOT": -2.45e-06, "MEAN_MOTION_DDOT": 0}, "tle": {"line1": "1 40878U 15040A   25353.84697935 -.00000245  00000+0 -53380-3 0  9990", "line2": "2 40878 100.1006 343.1455 0007585 269.0607  90.9637 13.16060735494077"}}, "geometry": {"type": "Point", "coordinates": [-19.683593463080307, 16.99517390265143]}}, {"type": "Feature", "properties": {"norad_id": 40894, "name": "GAOFEN-9 01", "group": "resource", "lat": -6.422467840380218, "lon": 33.657030239680346, "alt_km": 606.8184695432728, "timestamp": "2025-12-20T03:42:47.049361+00:00", "meta": {"OBJECT_NAME": "GAOFEN-9 01", "OBJECT_ID": "2015-047A", "EPOCH": "2025-12-19T21:15:44.269056", "MEAN_MOTION": 14.82438582, "ECCENTRICITY": 0.002782, "INCLINATION": 97.6533, "RA_OF_ASC_NODE": 32.5326, "ARG_OF_PERICENTER": 11.3588, "MEAN_ANOMALY": 348.8248, "EPHEMERIS_TYPE": 0, "CLASSIFICATION_TYPE": "U", "NORAD_CAT_ID": 40894, "ELEMENT_SET_NO": 999, "REV_AT_EPOCH": 55362, "BSTAR": 0.00010464, "MEAN_MOTION_DOT": 7.93e-06, "MEAN_MOTION_DDOT": 0}, "tle": {"line1": "1 40894U 15047A   25353.88592904  .00000793  00000+0  10464-3 0  9991", "line2": "2 40894  97.6533  32.5326 0027820  11.3588 348.8248 14.82438582553629"}}, "geometry": {"type": "Point", "coordinates": [33.657030239680346, -6.422467840380218]}}, {"type": "Feature", "properties": {"norad_id": 41026, "name": "YAOGAN-28", "group": "resource", "lat": -4.191578681138181, "lon": -48.79879149574917, "alt_km": 494.7732296337799, "timestamp": "2025-12-20T03:42:47.049371+00:00", "meta": {"OBJECT_NAME": "YAOGAN-28", "OBJECT_ID": "2015-064A", "EPOCH": "2025-12-19T20:36:28.397664", "MEAN_MOTION": 15.24462378, "ECCENTRICITY": 0.0012611, "INCLINATION": 97.2809, "RA_OF_ASC_NODE": 131.4504, "ARG_OF_PERICENTER": 103.3406, "MEAN_ANOMALY": 256.9239, "EPHEMERIS_TYPE": 0, "CLASSIFICATION_TYPE": "U", "NORAD_CAT_ID": 41026, "ELEMENT_SET_NO": 999, "REV_AT_EPOCH": 56333, "BSTAR": 0.00024541, "MEAN_MOTION_DOT": 5.97e-05, "MEAN_MOTION_DDOT": 0}, "tle": {"line1": "1 41026U 15064A   25353.85866201  .00005970  00000+0  24541-3 0  9992", "line2": "2 41026  97.2809 131.4504 0012611 103.3406 256.9239 15.24462378563334"}}, "geometry": {"type": "Point", "coordinates": [-48.79879149574917, -4.191578681138181]}}, {"type": "Feature", "properties": {"norad_id": 41038, "name": "YAOGAN-29", "group": "resource", "lat": -72.11191671291365, "lon": 171.44421875255432, "alt_km": 627.446872345592, "timestamp": "2025-12-20T03:42:47.049381+00:00", "meta": {"OBJECT_NAME": "YAOGAN-29", "OBJECT_ID": "2015-069A", "EPOCH": "2025-12-19T20:05:36.924288", "MEAN_MOTION": 14.82890975, "ECCENTRICITY": 4.57e-05, "INCLINATION": 98.0213, "RA_OF_ASC_NODE": 17.0321, "ARG_OF_PERICENTER": 176.6534, "MEAN_ANOMALY": 183.4682, "EPHEMERIS_TYPE": 0, "CLASSIFICATION_TYPE": "U", "NORAD_CAT_ID": 41038, "ELEMENT_SET_NO": 999, "REV_AT_EPOCH": 54404, "BSTAR": 9.2048e-05, "MEAN_MOTION_DOT": 6.92e-06, "MEAN_MOTION_DDOT": 0}, "tle": {"line1": "1 41038U 15069A   25353.83723292  .00000692  00000+0  92048-4 0  9994", "line2": "2 41038  98.0213  17.0321 0000457 176.6534 183.4682 14.82890975544045"}}, "geometry": {"type": "Point", "coordinates": [171.44421875255432, -72.11191671291365]}}, {"type": "Feature", "properties": {"norad_id": 41167, "name": "KENT RIDGE 1", "group": "resource", "lat": -9.592731353951104, "lon": 15.330243572878835, "alt_km": 493.49198746740785, "timestamp": "2025-12-20T03:42:47.049391+00:00", "meta": {"OBJECT_NAME": "KENT RIDGE 1", "OBJECT_ID": "2015-077B", "EPOCH": "2025-12-19T15:44:19.065408", "MEAN_MOTION": 15.21687, "ECCENTRICITY": 0.0008521, "INCLINATION": 14.9781, "RA_OF_ASC_NODE": 159.8192, "ARG_OF_PERICENTER": 228.6, "MEAN_ANOMALY": 131.3589, "EPHEMERIS_TYPE": 0, "CLASSIFICATION_TYPE": "U", "NORAD_CAT_ID": 41167, "ELEMENT_SET_NO": 999, "REV_AT_EPOCH": 55369, "BSTAR": 0.00012437, "MEAN_MOTION_DOT": 3.652e-05, "MEAN_MOTION_DDOT": 0}, "tle": {"line1": "1 41167U 15077B   25353.65577622  .00003652  00000+0  12437-3 0  9992", "line2": "2 41167  14.9781 159.8192 0008521 228.6000 131.3589 15.21687000553698"}}, "geometry": {"type": "Point", "coordinates": [15.330243572878835, -9.592731353951104]}}, {"type": "Feature", "properties": {"norad_id": 41194, "name": "GAOFEN-4", "group": "resource", "lat": 0.01040697840336708, "lon": -109.57253342228283, "alt_km": 35782.61954151538, "timestamp": "2025-12-20T03:42:47.049404+00:00", "meta": {"OBJECT_NAME": "GAOFEN-4", "OBJECT_ID": "2015-083A", "EPOCH": "2025-12-19T15:27:26.627616", "MEAN_MOTION": 1.00273138, "ECCENTRICITY": 0.0002945, "INCLINATION": 0.1878, "RA_OF_ASC_NODE": 81.7841, "ARG_OF_PERICENTER": 93.4275, "MEAN_ANOMALY": 250.8523, "EPHEMERIS_TYPE": 0, "CLASSIFICATION_TYPE": "U", "NORAD_CAT_ID": 41194, "ELEMENT_SET_NO": 999, "REV_AT_EPOCH": 3672, "BSTAR": 0, "MEAN_MOTION_DOT": -3.11e-06, "MEAN_MOTION_DDOT": 0}, "tle": {"line1": "1 41194U 15083A   25353.64405819 -.00000311  00000+0  00000+0 0  9995", "line2": "2 41194   0.1878  81.7841 0002945  93.4275 250.8523  1.00273138 36722"}}, "geometry": {"type": "Point", "coordinates": [-109.57253342228283, 0.01040697840336708]}}, {"type": "Feature", "properties": {"norad_id": 41240, "name": "JASON-3", "group": "resource", "lat": 52.410062856872365, "lon": -73.04640505140723, "alt_km": 1310.0110810798324, "timestamp": "2025-12-20T03:42:47.049415+00:00", "meta": {"OBJECT_NAME": "JASON-3", "OBJECT_ID": "2016-002A", "EPOCH": "2025-12-19T19:38:10.434048", "MEAN_MOTION": 12.87626874, "ECCENTRICITY": 0.000721, "INCLINATION": 66.0398, "RA_OF_ASC_NODE": 142.9424, "ARG_OF_PERICENTER": 271.2282, "MEAN_ANOMALY": 88.7911, "EPHEMERIS_TYPE": 0, "CLASSIFICATION_TYPE": "U", "NORAD_CAT_ID": 41240, "ELEMENT_SET_NO": 999, "REV_AT_EPOCH": 46415, "BSTAR": 9.6276e-06, "MEAN_MOTION_DOT": -6e-07, "MEAN_MOTION_DDOT": 0}, "tle": {"line1": "1 41240U 16002A   25353.81817632 -.00000060  00000+0  96276-5 0  9995", "line2": "2 41240  66.0398 142.9424 0007210 271.2282  88.7911 12.87626874464150"}}, "geometry": {"type": "Point", "coordinates": [-73.04640505140723, 52.410062856872365]}}, {"type": "Feature", "properties": {"norad_id": 41335, "name": "SENTINEL-3A", "group": "resource", "lat": -74.11372348843555, "lon": -153.18956877731964, "alt_km": 810.5905052958178, "timestamp": "2025-12-20T03:42:47.049425+00:00", "meta": {"OBJECT_NAME": "SENTINEL-3A", "OBJECT_ID": "2016-011A", "EPOCH": "2025-12-19T19:46:53.681088", "MEAN_MOTION": 14.26733252, "ECCENTRICITY": 9.08e-05, "INCLINATION": 98.6306, "RA_OF_ASC_NODE": 58.7378, "ARG_OF_PERICENTER": 93.4901, "MEAN_ANOMALY": 266.6384, "EPHEMERIS_TYPE": 0, "CLASSIFICATION_TYPE": "U", "NORAD_CAT_ID": 41335, "ELEMENT_SET_NO": 999, "REV_AT_EPOCH": 51248, "BSTAR": 6.0011e-05, "MEAN_MOTION_DOT": 1.02e-06, "MEAN_MOTION_DDOT": 0}, "tle": {"line1": "1 41335U 16011A   25353.82423242  .00000102  00000+0  60011-4 0  9994", "line2": "2 41335  98.6306  58.7378 0000908  93.4901 266.6384 14.26733252512481"}}, "geometry": {"type": "Point", "coordinates": [-153.18956877731964, -74.11372348843555]}}]}